(Header: Generated G-Code Toolpath)
(Source: activity-radar.svg)
G21 (Unit: Metric mm)
G90 (Absolute coordinates)
G0 Z5.000 F2000 (Pen up)
M3 S1000 (Laser/Spindle ON)

(Draw Rectangle)
G0 X0.000 Y0.000 Z5.000
G1 Z0.000 F500
G1 X410.000 Y0.000 F1000
G1 X410.000 Y230.000 F1000
G1 X0.000 Y230.000 F1000
G1 X0.000 Y0.000 F1000
G0 Z5.000
(Draw Line)
G0 X24.000 Y44.000 Z5.000 (Rapid move to start)
G1 Z0.000 F500 (Pen down)
G1 X386.000 Y44.000 F1000 (Draw segment)
G0 Z5.000 (Pen up)
(Draw Polygon/Polyline)
G0 X205.000 Y116.900 Z5.000
G1 Z0.000 F500
G1 X227.000 Y132.900 F1000
G1 X218.600 Y158.700 F1000
G1 X191.400 Y158.700 F1000
G1 X183.000 Y132.900 F1000
G1 X205.000 Y116.900 F1000
G0 Z5.000
(Draw Polygon/Polyline)
G0 X205.000 Y93.800 Z5.000
G1 Z0.000 F500
G1 X248.900 Y125.700 F1000
G1 X232.200 Y177.400 F1000
G1 X177.800 Y177.400 F1000
G1 X161.100 Y125.700 F1000
G1 X205.000 Y93.800 F1000
G0 Z5.000
(Draw Polygon/Polyline)
G0 X205.000 Y70.000 Z5.000
G1 Z0.000 F500
G1 X271.600 Y118.400 F1000
G1 X246.100 Y196.600 F1000
G1 X163.900 Y196.600 F1000
G1 X138.400 Y118.400 F1000
G1 X205.000 Y70.000 F1000
G0 Z5.000
(Draw Line)
G0 X205.000 Y140.000 Z5.000 (Rapid move to start)
G1 Z0.000 F500 (Pen down)
G1 X205.000 Y70.000 F1000 (Draw segment)
G0 Z5.000 (Pen up)
(Draw Line)
G0 X205.000 Y140.000 Z5.000 (Rapid move to start)
G1 Z0.000 F500 (Pen down)
G1 X271.600 Y118.400 F1000 (Draw segment)
G0 Z5.000 (Pen up)
(Draw Line)
G0 X205.000 Y140.000 Z5.000 (Rapid move to start)
G1 Z0.000 F500 (Pen down)
G1 X246.100 Y196.600 F1000 (Draw segment)
G0 Z5.000 (Pen up)
(Draw Line)
G0 X205.000 Y140.000 Z5.000 (Rapid move to start)
G1 Z0.000 F500 (Pen down)
G1 X163.900 Y196.600 F1000 (Draw segment)
G0 Z5.000 (Pen up)
(Draw Line)
G0 X205.000 Y140.000 Z5.000 (Rapid move to start)
G1 Z0.000 F500 (Pen down)
G1 X138.400 Y118.400 F1000 (Draw segment)
G0 Z5.000 (Pen up)
(Draw Polygon/Polyline)
G0 X205.000 Y97.700 Z5.000
G1 Z0.000 F500
G1 X268.200 Y119.500 F1000
G1 X219.500 Y160.000 F1000
G1 X190.500 Y160.000 F1000
G1 X181.700 Y132.400 F1000
G1 X205.000 Y97.700 F1000
G0 Z5.000

M5 (Laser/Spindle OFF)
G0 X0.000 Y0.000 Z10.000 (Return home)
M30 (End of program)